STARLINK-34161
1 64017U 25101Z   26079.32677699  .00008116  00000+0  30407-3 0  9992
2 64017  43.0049 297.7433 0001124 272.4243  87.6480 15.27586385 48686
STARLINK-34162
1 64018U 25101AA  26079.92810706  .00019522  00000+0  71694-3 0  9993
2 64018  43.0013 294.5251 0002109 268.8735  91.1875 15.27584407 48771
STARLINK-34155
1 64019U 25101AB  26079.60891153  .00045710  00000+0  16607-2 0  9994
2 64019  42.9971 296.4254 0001142 291.1931  68.8798 15.27572143 48724
STARLINK-34141
1 64020U 25101AC  26079.93196603  .00017812  00000+0  65473-3 0  9998
2 64020  43.0003 294.5523 0001451 282.2079  77.8610 15.27604159 48770
STARLINK-34062
1 64021U 25101AD  26079.91011857  .00018096  00000+0  66480-3 0  9998
2 64021  43.0012 294.3823 0001472 280.5123  79.5562 15.27614854 48774
STARLINK-34051
1 64022U 25102A   26079.71491244  .00004596  00000+0  39256-3 0  9991
2 64022  70.0005  86.6621 0003643 263.9697  96.1047 14.98341829 47608
STARLINK-34184
1 64023U 25102B   26079.73144411  .00003783  00000+0  32456-3 0  9997
2 64023  70.0000  86.7151 0003658 272.5022  87.5718 14.98338368 47611
STARLINK-34087
1 64024U 25102C   26079.76482769  .00006273  00000+0  53288-3 0  9995
2 64024  70.0011  86.4284 0003074 267.7733  92.3074 14.98340378 47506
STARLINK-34088
1 64025U 25102D   26079.40615761  .00001857  00000+0  16334-3 0  9991
2 64025  69.9996  87.5816 0003640 270.9466  89.1276 14.98337299 47569
STARLINK-33992
1 64026U 25102E   26079.41436167  .00004215  00000+0  36074-3 0  9998
2 64026  70.0006  87.6160 0003723 267.2944  92.7789 14.98339795 47641
STARLINK-33967
1 64027U 25102F   26079.71476601  .00008126  00000+0  68790-3 0  9994
2 64027  69.9998  86.6550 0003709 273.8022  86.2713 14.98334520 47540
STARLINK-33953
1 64028U 25102G   26079.75229176  .00005887  00000+0  50060-3 0  9994
2 64028  70.0010  86.3818 0003354 270.9614  89.1161 14.98341850 47716
STARLINK-33790
1 64029U 25102H   26079.72743652 -.00000284  00000+0 -15991-4 0  9995
2 64029  70.0004  86.6966 0005627 235.5670 124.4957 14.98350468 47655
STARLINK-34030
1 64030U 25102J   26079.73981657  .00002505  00000+0  21772-3 0  9996
2 64030  70.0046  86.7432 0002531 280.4001  79.6873 14.98324848 47617
STARLINK-34024
1 64031U 25102K   26079.38929612 -.00000198  00000+0 -87914-5 0  9991
2 64031  70.0004  87.5275 0003377 268.0495  92.0277 14.98327464 47494
STARLINK-34019
1 64032U 25102L   26079.96091744  .00004744  00000+0  40499-3 0  9996
2 64032  70.0002  85.9079 0003523 269.9873  90.0882 14.98341199 47659
