[{"OBJECT_NAME":"STARLINK-34161","OBJECT_ID":"2025-101Z","EPOCH":"2026-03-20T07:50:33.531936","MEAN_MOTION":15.27586385,"ECCENTRICITY":0.00011245,"INCLINATION":43.0049,"RA_OF_ASC_NODE":297.7433,"ARG_OF_PERICENTER":272.4243,"MEAN_ANOMALY":87.648,"EPHEMERIS_TYPE":0,"CLASSIFICATION_TYPE":"U","NORAD_CAT_ID":64017,"ELEMENT_SET_NO":999,"REV_AT_EPOCH":4868,"BSTAR":0.00030407099,"MEAN_MOTION_DOT":8.116e-5,"MEAN_MOTION_DDOT":0},{"OBJECT_NAME":"STARLINK-34162","OBJECT_ID":"2025-101AA","EPOCH":"2026-03-20T22:16:28.449984","MEAN_MOTION":15.27584407,"ECCENTRICITY":0.00021099,"INCLINATION":43.0013,"RA_OF_ASC_NODE":294.5251,"ARG_OF_PERICENTER":268.8735,"MEAN_ANOMALY":91.1875,"EPHEMERIS_TYPE":0,"CLASSIFICATION_TYPE":"U","NORAD_CAT_ID":64018,"ELEMENT_SET_NO":999,"REV_AT_EPOCH":4877,"BSTAR":0.00071694072,"MEAN_MOTION_DOT":0.00019522,"MEAN_MOTION_DDOT":0},{"OBJECT_NAME":"STARLINK-34155","OBJECT_ID":"2025-101AB","EPOCH":"2026-03-20T14:36:49.956192","MEAN_MOTION":15.27572143,"ECCENTRICITY":0.0001142,"INCLINATION":42.9971,"RA_OF_ASC_NODE":296.4254,"ARG_OF_PERICENTER":291.1931,"MEAN_ANOMALY":68.8798,"EPHEMERIS_TYPE":0,"CLASSIFICATION_TYPE":"U","NORAD_CAT_ID":64019,"ELEMENT_SET_NO":999,"REV_AT_EPOCH":4872,"BSTAR":0.0016607,"MEAN_MOTION_DOT":0.0004571,"MEAN_MOTION_DDOT":0},{"OBJECT_NAME":"STARLINK-34141","OBJECT_ID":"2025-101AC","EPOCH":"2026-03-20T22:22:01.864992","MEAN_MOTION":15.27604159,"ECCENTRICITY":0.00014511,"INCLINATION":43.0003,"RA_OF_ASC_NODE":294.5523,"ARG_OF_PERICENTER":282.2079,"MEAN_ANOMALY":77.861,"EPHEMERIS_TYPE":0,"CLASSIFICATION_TYPE":"U","NORAD_CAT_ID":64020,"ELEMENT_SET_NO":999,"REV_AT_EPOCH":4877,"BSTAR":0.00065473239,"MEAN_MOTION_DOT":0.00017812,"MEAN_MOTION_DDOT":0},{"OBJECT_NAME":"STARLINK-34062","OBJECT_ID":"2025-101AD","EPOCH":"2026-03-20T21:50:34.244448","MEAN_MOTION":15.27614854,"ECCENTRICITY":0.00014728,"INCLINATION":43.0012,"RA_OF_ASC_NODE":294.3823,"ARG_OF_PERICENTER":280.5123,"MEAN_ANOMALY":79.5562,"EPHEMERIS_TYPE":0,"CLASSIFICATION_TYPE":"U","NORAD_CAT_ID":64021,"ELEMENT_SET_NO":999,"REV_AT_EPOCH":4877,"BSTAR":0.00066479821,"MEAN_MOTION_DOT":0.00018096,"MEAN_MOTION_DDOT":0},{"OBJECT_NAME":"STARLINK-34051","OBJECT_ID":"2025-102A","EPOCH":"2026-03-20T17:09:28.434816","MEAN_MOTION":14.98341829,"ECCENTRICITY":0.00036431,"INCLINATION":70.0005,"RA_OF_ASC_NODE":86.6621,"ARG_OF_PERICENTER":263.9697,"MEAN_ANOMALY":96.1047,"EPHEMERIS_TYPE":0,"CLASSIFICATION_TYPE":"U","NORAD_CAT_ID":64022,"ELEMENT_SET_NO":999,"REV_AT_EPOCH":4760,"BSTAR":0.00039256355,"MEAN_MOTION_DOT":4.596e-5,"MEAN_MOTION_DDOT":0},{"OBJECT_NAME":"STARLINK-34184","OBJECT_ID":"2025-102B","EPOCH":"2026-03-20T17:33:16.771104","MEAN_MOTION":14.98338368,"ECCENTRICITY":0.00036587,"INCLINATION":70,"RA_OF_ASC_NODE":86.7151,"ARG_OF_PERICENTER":272.5022,"MEAN_ANOMALY":87.5718,"EPHEMERIS_TYPE":0,"CLASSIFICATION_TYPE":"U","NORAD_CAT_ID":64023,"ELEMENT_SET_NO":999,"REV_AT_EPOCH":4761,"BSTAR":0.00032455901,"MEAN_MOTION_DOT":3.783e-5,"MEAN_MOTION_DDOT":0},{"OBJECT_NAME":"STARLINK-34087","OBJECT_ID":"2025-102C","EPOCH":"2026-03-20T18:21:21.112416","MEAN_MOTION":14.98340378,"ECCENTRICITY":0.00030742,"INCLINATION":70.0011,"RA_OF_ASC_NODE":86.4284,"ARG_OF_PERICENTER":267.7733,"MEAN_ANOMALY":92.3074,"EPHEMERIS_TYPE":0,"CLASSIFICATION_TYPE":"U","NORAD_CAT_ID":64024,"ELEMENT_SET_NO":999,"REV_AT_EPOCH":4750,"BSTAR":0.00053287522,"MEAN_MOTION_DOT":6.273e-5,"MEAN_MOTION_DDOT":0},{"OBJECT_NAME":"STARLINK-34088","OBJECT_ID":"2025-102D","EPOCH":"2026-03-20T09:44:52.017504","MEAN_MOTION":14.98337299,"ECCENTRICITY":0.000364,"INCLINATION":69.9996,"RA_OF_ASC_NODE":87.5816,"ARG_OF_PERICENTER":270.9466,"MEAN_ANOMALY":89.1276,"EPHEMERIS_TYPE":0,"CLASSIFICATION_TYPE":"U","NORAD_CAT_ID":64025,"ELEMENT_SET_NO":999,"REV_AT_EPOCH":4756,"BSTAR":0.00016334052,"MEAN_MOTION_DOT":1.857e-5,"MEAN_MOTION_DDOT":0},{"OBJECT_NAME":"STARLINK-33992","OBJECT_ID":"2025-102E","EPOCH":"2026-03-20T09:56:40.848288","MEAN_MOTION":14.98339795,"ECCENTRICITY":0.00037237,"INCLINATION":70.0006,"RA_OF_ASC_NODE":87.616,"ARG_OF_PERICENTER":267.2944,"MEAN_ANOMALY":92.7789,"EPHEMERIS_TYPE":0,"CLASSIFICATION_TYPE":"U","NORAD_CAT_ID":64026,"ELEMENT_SET_NO":999,"REV_AT_EPOCH":4764,"BSTAR":0.00036073869,"MEAN_MOTION_DOT":4.215e-5,"MEAN_MOTION_DDOT":0},{"OBJECT_NAME":"STARLINK-33967","OBJECT_ID":"2025-102F","EPOCH":"2026-03-20T17:09:15.783264","MEAN_MOTION":14.9833452,"ECCENTRICITY":0.00037091,"INCLINATION":69.9998,"RA_OF_ASC_NODE":86.655,"ARG_OF_PERICENTER":273.8022,"MEAN_ANOMALY":86.2713,"EPHEMERIS_TYPE":0,"CLASSIFICATION_TYPE":"U","NORAD_CAT_ID":64027,"ELEMENT_SET_NO":999,"REV_AT_EPOCH":4754,"BSTAR":0.00068790015,"MEAN_MOTION_DOT":8.126e-5,"MEAN_MOTION_DDOT":0},{"OBJECT_NAME":"STARLINK-33953","OBJECT_ID":"2025-102G","EPOCH":"2026-03-20T18:03:18.008064","MEAN_MOTION":14.9834185,"ECCENTRICITY":0.0003354,"INCLINATION":70.001,"RA_OF_ASC_NODE":86.3818,"ARG_OF_PERICENTER":270.9614,"MEAN_ANOMALY":89.1161,"EPHEMERIS_TYPE":0,"CLASSIFICATION_TYPE":"U","NORAD_CAT_ID":64028,"ELEMENT_SET_NO":999,"REV_AT_EPOCH":4771,"BSTAR":0.00050060067,"MEAN_MOTION_DOT":5.887e-5,"MEAN_MOTION_DDOT":0},{"OBJECT_NAME":"STARLINK-33790","OBJECT_ID":"2025-102H","EPOCH":"2026-03-20T17:27:30.515328","MEAN_MOTION":14.98350468,"ECCENTRICITY":0.00056277,"INCLINATION":70.0004,"RA_OF_ASC_NODE":86.6966,"ARG_OF_PERICENTER":235.567,"MEAN_ANOMALY":124.4957,"EPHEMERIS_TYPE":0,"CLASSIFICATION_TYPE":"U","NORAD_CAT_ID":64029,"ELEMENT_SET_NO":999,"REV_AT_EPOCH":4765,"BSTAR":-1.5991414e-5,"MEAN_MOTION_DOT":-2.84e-6,"MEAN_MOTION_DDOT":0},{"OBJECT_NAME":"STARLINK-34030","OBJECT_ID":"2025-102J","EPOCH":"2026-03-20T17:45:20.151648","MEAN_MOTION":14.98324848,"ECCENTRICITY":0.00025317,"INCLINATION":70.0046,"RA_OF_ASC_NODE":86.7432,"ARG_OF_PERICENTER":280.4001,"MEAN_ANOMALY":79.6873,"EPHEMERIS_TYPE":0,"CLASSIFICATION_TYPE":"U","NORAD_CAT_ID":64030,"ELEMENT_SET_NO":999,"REV_AT_EPOCH":4761,"BSTAR":0.00021771647,"MEAN_MOTION_DOT":2.505e-5,"MEAN_MOTION_DDOT":0},{"OBJECT_NAME":"STARLINK-34024","OBJECT_ID":"2025-102K","EPOCH":"2026-03-20T09:20:35.184768","MEAN_MOTION":14.98327464,"ECCENTRICITY":0.00033772,"INCLINATION":70.0004,"RA_OF_ASC_NODE":87.5275,"ARG_OF_PERICENTER":268.0495,"MEAN_ANOMALY":92.0277,"EPHEMERIS_TYPE":0,"CLASSIFICATION_TYPE":"U","NORAD_CAT_ID":64031,"ELEMENT_SET_NO":999,"REV_AT_EPOCH":4749,"BSTAR":-8.791442e-6,"MEAN_MOTION_DOT":-1.98e-6,"MEAN_MOTION_DDOT":0},{"OBJECT_NAME":"STARLINK-34019","OBJECT_ID":"2025-102L","EPOCH":"2026-03-20T23:03:43.266816","MEAN_MOTION":14.98341199,"ECCENTRICITY":0.00035232,"INCLINATION":70.0002,"RA_OF_ASC_NODE":85.9079,"ARG_OF_PERICENTER":269.9873,"MEAN_ANOMALY":90.0882,"EPHEMERIS_TYPE":0,"CLASSIFICATION_TYPE":"U","NORAD_CAT_ID":64032,"ELEMENT_SET_NO":999,"REV_AT_EPOCH":4765,"BSTAR":0.00040499059,"MEAN_MOTION_DOT":4.744e-5,"MEAN_MOTION_DDOT":0}]
